[
    {
        "Altitude(m)": 553815.7214049675,
        "Argument of Periapsis(deg)": 0.013245982221427002,
        "Eccentricity": 0.0,
        "Inclination(deg)": 53.0,
        "Latitude(deg)": 19.966046586810787,
        "Longitude(deg)": -162.37581765332436,
        "Mean Anomaly(deg)": 154.72868573515518,
        "RAAN(deg)": 134.98028673705602,
        "Satellite Name": "Starlink Shell 1 602",
        "Satellite Number": 602,
        "Semi-Major Axis(m)": 6931778.249405717,
        "Time(s)": 380
    },
    {
        "Altitude(m)": 553777.675905651,
        "Argument of Periapsis(deg)": 0.013594560700938237,
        "Eccentricity": 0.0,
        "Inclination(deg)": 53.0,
        "Latitude(deg)": 19.48099087754423,
        "Longitude(deg)": -161.9922146517339,
        "Mean Anomaly(deg)": 155.35551693871196,
        "RAAN(deg)": 134.97976796697859,
        "Satellite Name": "Starlink Shell 1 602",
        "Satellite Number": 602,
        "Semi-Major Axis(m)": 6931778.249405717,
        "Time(s)": 390
    },
    {
        "Altitude(m)": 553741.7550519386,
        "Argument of Periapsis(deg)": 0.013943139180449475,
        "Eccentricity": 0.0,
        "Inclination(deg)": 53.0,
        "Latitude(deg)": 18.99492099925215,
        "Longitude(deg)": -161.61113632990168,
        "Mean Anomaly(deg)": 155.9823481422686,
        "RAAN(deg)": 134.97924919690107,
        "Satellite Name": "Starlink Shell 1 602",
        "Satellite Number": 602,
        "Semi-Major Axis(m)": 6931778.249405717,
        "Time(s)": 400
    },
    {
        "Altitude(m)": 553707.9978015322,
        "Argument of Periapsis(deg)": 0.014291717659960712,
        "Eccentricity": 0.0,
        "Inclination(deg)": 53.0,
        "Latitude(deg)": 18.50786978569659,
        "Longitude(deg)": -161.2325051242192,
        "Mean Anomaly(deg)": 156.60917934582537,
        "RAAN(deg)": 134.97873042682363,
        "Satellite Name": "Starlink Shell 1 602",
        "Satellite Number": 602,
        "Semi-Major Axis(m)": 6931778.249405717,
        "Time(s)": 410
    },
    {
        "Altitude(m)": 553676.442175059,
        "Argument of Periapsis(deg)": 0.014640296139471948,
        "Eccentricity": 0.0,
        "Inclination(deg)": 53.0,
        "Latitude(deg)": 18.019869512848878,
        "Longitude(deg)": -160.85624497883387,
        "Mean Anomaly(deg)": 157.23601054938197,
        "RAAN(deg)": 134.97821165674614,
        "Satellite Name": "Starlink Shell 1 602",
        "Satellite Number": 602,
        "Semi-Major Axis(m)": 6931778.249405717,
        "Time(s)": 420
    },
    {
        "Altitude(m)": 553647.1252346898,
        "Argument of Periapsis(deg)": 0.014988874618983185,
        "Eccentricity": 0.0,
        "Inclination(deg)": 53.0,
        "Latitude(deg)": 17.53095191897935,
        "Longitude(deg)": -160.48228081563187,
        "Mean Anomaly(deg)": 157.86284175293878,
        "RAAN(deg)": 134.97769288666865,
        "Satellite Name": "Starlink Shell 1 602",
        "Satellite Number": 602,
        "Semi-Major Axis(m)": 6931778.249405717,
        "Time(s)": 430
    },
    {
        "Altitude(m)": 553620.0830631875,
        "Argument of Periapsis(deg)": 0.015337453098494424,
        "Eccentricity": 0.0,
        "Inclination(deg)": 53.0,
        "Latitude(deg)": 17.04114822430227,
        "Longitude(deg)": -160.11053800392298,
        "Mean Anomaly(deg)": 158.4896729564955,
        "RAAN(deg)": 134.9771741165912,
        "Satellite Name": "Starlink Shell 1 602",
        "Satellite Number": 602,
        "Semi-Major Axis(m)": 6931778.249405717,
        "Time(s)": 440
    },
    {
        "Altitude(m)": 553595.3507434307,
        "Argument of Periapsis(deg)": 0.01568603157800566,
        "Eccentricity": 0.0,
        "Inclination(deg)": 53.0,
        "Latitude(deg)": 16.550489150188014,
        "Longitude(deg)": -159.74094334274756,
        "Mean Anomaly(deg)": 159.1165041600522,
        "RAAN(deg)": 134.97665534651375,
        "Satellite Name": "Starlink Shell 1 602",
        "Satellite Number": 602,
        "Semi-Major Axis(m)": 6931778.249405717,
        "Time(s)": 450
    },
    {
        "Altitude(m)": 553572.9623384111,
        "Argument of Periapsis(deg)": 0.0160346100575169,
        "Eccentricity": 0.0,
        "Inclination(deg)": 53.0,
        "Latitude(deg)": 16.05900493794959,
        "Longitude(deg)": -159.37342453010515,
        "Mean Anomaly(deg)": 159.7433353636089,
        "RAAN(deg)": 134.97613657643623,
        "Satellite Name": "Starlink Shell 1 602",
        "Satellite Number": 602,
        "Semi-Major Axis(m)": 6931778.249405717,
        "Time(s)": 460
    },
    {
        "Altitude(m)": 553552.9508717312,
        "Argument of Periapsis(deg)": 0.016383188537028134,
        "Eccentricity": 0.0,
        "Inclination(deg)": 53.0,
        "Latitude(deg)": 15.566725367219377,
        "Longitude(deg)": -159.0079096320192,
        "Mean Anomaly(deg)": 160.3701665671656,
        "RAAN(deg)": 134.97561780635877,
        "Satellite Name": "Starlink Shell 1 602",
        "Satellite Number": 602,
        "Semi-Major Axis(m)": 6931778.249405717,
        "Time(s)": 470
    },
    {
        "Altitude(m)": 553535.3483085599,
        "Argument of Periapsis(deg)": 0.01673176701653937,
        "Eccentricity": 0.0,
        "Inclination(deg)": 53.0,
        "Latitude(deg)": 15.073679773927818,
        "Longitude(deg)": -158.64432806434553,
        "Mean Anomaly(deg)": 160.99699777072237,
        "RAAN(deg)": 134.9750990362813,
        "Satellite Name": "Starlink Shell 1 602",
        "Satellite Number": 602,
        "Semi-Major Axis(m)": 6931778.249405717,
        "Time(s)": 480
    },
    {
        "Altitude(m)": 553520.1855371315,
        "Argument of Periapsis(deg)": 0.017080345496050607,
        "Eccentricity": 0.0,
        "Inclination(deg)": 53.0,
        "Latitude(deg)": 14.57989706789426,
        "Longitude(deg)": -158.28261006161316,
        "Mean Anomaly(deg)": 161.62382897427906,
        "RAAN(deg)": 134.97458026620382,
        "Satellite Name": "Starlink Shell 1 602",
        "Satellite Number": 602,
        "Semi-Major Axis(m)": 6931778.249405717,
        "Time(s)": 490
    },
    {
        "Altitude(m)": 553507.4923507541,
        "Argument of Periapsis(deg)": 0.017428923975561842,
        "Eccentricity": 0.0,
        "Inclination(deg)": 53.0,
        "Latitude(deg)": 14.085405750042202,
        "Longitude(deg)": -157.9226861457982,
        "Mean Anomaly(deg)": 162.25066017783578,
        "RAAN(deg)": 134.97406149612635,
        "Satellite Name": "Starlink Shell 1 602",
        "Satellite Number": 602,
        "Semi-Major Axis(m)": 6931778.249405717,
        "Time(s)": 500
    },
    {
        "Altitude(m)": 553497.2974303295,
        "Argument of Periapsis(deg)": 0.01777750245507308,
        "Eccentricity": 0.0,
        "Inclination(deg)": 53.0,
        "Latitude(deg)": 13.59023392925625,
        "Longitude(deg)": -157.5644881079314,
        "Mean Anomaly(deg)": 162.8774913813925,
        "RAAN(deg)": 134.9735427260489,
        "Satellite Name": "Starlink Shell 1 602",
        "Satellite Number": 602,
        "Semi-Major Axis(m)": 6931778.249405717,
        "Time(s)": 510
    },
    {
        "Altitude(m)": 553489.6283274515,
        "Argument of Periapsis(deg)": 0.018126080934584315,
        "Eccentricity": 0.0,
        "Inclination(deg)": 53.0,
        "Latitude(deg)": 13.094409338886317,
        "Longitude(deg)": -157.2079484768158,
        "Mean Anomaly(deg)": 163.5043225849492,
        "RAAN(deg)": 134.9730239559714,
        "Satellite Name": "Starlink Shell 1 602",
        "Satellite Number": 602,
        "Semi-Major Axis(m)": 6931778.249405717,
        "Time(s)": 520
    },
    {
        "Altitude(m)": 553484.5114479793,
        "Argument of Periapsis(deg)": 0.018474659414095554,
        "Eccentricity": 0.0,
        "Inclination(deg)": 53.0,
        "Latitude(deg)": 12.597959352915398,
        "Longitude(deg)": -156.85299998774747,
        "Mean Anomaly(deg)": 164.1311537885059,
        "RAAN(deg)": 134.97250518589394,
        "Satellite Name": "Starlink Shell 1 602",
        "Satellite Number": 602,
        "Semi-Major Axis(m)": 6931778.249405717,
        "Time(s)": 530
    },
    {
        "Altitude(m)": 553481.9720362582,
        "Argument of Periapsis(deg)": 0.018823237893606792,
        "Eccentricity": 0.0,
        "Inclination(deg)": 53.0,
        "Latitude(deg)": 12.100911001805562,
        "Longitude(deg)": -156.4995765641312,
        "Mean Anomaly(deg)": 164.75798499206263,
        "RAAN(deg)": 134.97198641581647,
        "Satellite Name": "Starlink Shell 1 602",
        "Satellite Number": 602,
        "Semi-Major Axis(m)": 6931778.249405717,
        "Time(s)": 540
    },
    {
        "Altitude(m)": 553482.0341598261,
        "Argument of Periapsis(deg)": 0.019171816373118027,
        "Eccentricity": 0.0,
        "Inclination(deg)": 53.0,
        "Latitude(deg)": 11.603290988029674,
        "Longitude(deg)": -156.14761278625977,
        "Mean Anomaly(deg)": 165.38481619561935,
        "RAAN(deg)": 134.97146764573898,
        "Satellite Name": "Starlink Shell 1 602",
        "Satellite Number": 602,
        "Semi-Major Axis(m)": 6931778.249405717,
        "Time(s)": 550
    },
    {
        "Altitude(m)": 553484.7206947351,
        "Argument of Periapsis(deg)": 0.019520394852629266,
        "Eccentricity": 0.0,
        "Inclination(deg)": 53.0,
        "Latitude(deg)": 11.10512570130454,
        "Longitude(deg)": -155.7970433601437,
        "Mean Anomaly(deg)": 166.01164739917604,
        "RAAN(deg)": 134.97094887566152,
        "Satellite Name": "Starlink Shell 1 602",
        "Satellite Number": 602,
        "Semi-Major Axis(m)": 6931778.249405717,
        "Time(s)": 560
    }
]